[
    {
        "Altitude(m)": 605470.7348430711,
        "Argument of Periapsis(deg)": 0.0,
        "Eccentricity": 0.0,
        "Inclination(deg)": 60.0,
        "Latitude(deg)": 27.9880270622377,
        "Longitude(deg)": -97.73704521860552,
        "Mean Anomaly(deg)": 147.27270000000001,
        "RAAN(deg)": 200.0,
        "Satellite Name": "Test1 889",
        "Satellite Number": 889,
        "Semi-Major Axis(m)": 6980739.136638005,
        "Time(s)": 0
    },
    {
        "Altitude(m)": 605395.7733786555,
        "Argument of Periapsis(deg)": 0.00010418945913296404,
        "Eccentricity": 0.0,
        "Inclination(deg)": 60.0,
        "Latitude(deg)": 27.473717655387404,
        "Longitude(deg)": -97.38385817575345,
        "Mean Anomaly(deg)": 147.8928061454618,
        "RAAN(deg)": 199.99957995086027,
        "Satellite Name": "Test1 889",
        "Satellite Number": 889,
        "Semi-Major Axis(m)": 6980739.136638005,
        "Time(s)": 10
    }
]